[{"OBJECT_NAME":"HAWK-B","OBJECT_ID":"2018-099AN","EPOCH":"2026-03-09T17:08:08.176128","MEAN_MOTION":15.21533472,"ECCENTRICITY":0.00313564,"INCLINATION":97.4099,"RA_OF_ASC_NODE":121.8943,"ARG_OF_PERICENTER":293.4422,"MEAN_ANOMALY":66.3518,"EPHEMERIS_TYPE":0,"CLASSIFICATION_TYPE":"U","NORAD_CAT_ID":43794,"ELEMENT_SET_NO":999,"REV_AT_EPOCH":39790,"BSTAR":0.00033189141,"MEAN_MOTION_DOT":7.505e-5,"MEAN_MOTION_DDOT":0},{"OBJECT_NAME":"STARLINK-31950","OBJECT_ID":"2024-098F","EPOCH":"2026-03-08T13:38:36.901824","MEAN_MOTION":15.27770245,"ECCENTRICITY":0.00018404,"INCLINATION":43.0002,"RA_OF_ASC_NODE":284.4192,"ARG_OF_PERICENTER":57.7343,"MEAN_ANOMALY":302.3687,"EPHEMERIS_TYPE":0,"CLASSIFICATION_TYPE":"U","NORAD_CAT_ID":59863,"ELEMENT_SET_NO":999,"REV_AT_EPOCH":10167,"BSTAR":-0.0013814305,"MEAN_MOTION_DOT":-0.00038303,"MEAN_MOTION_DDOT":0}]
